NORAD_CAT_ID,OBJECT_NAME,OBJECT_TYPE,EPOCH,MEAN_MOTION,ECCENTRICITY,INCLINATION,RA_OF_ASC_NODE,ARG_OF_PERICENTER,MEAN_ANOMALY,BSTAR,MEAN_MOTION_DOT,MEAN_MOTION_DDOT,TLE_LINE0,TLE_LINE1,TLE_LINE2,SEMIMAJOR_AXIS,PERIOD,APOGEE,PERIGEE,DECAYED
55641.0,STARLINK-5065,PAYLOAD,2023-12-11 16:41:12,14.98325449,0.0003263,70.0022,89.4528,255.4704,104.6093,-1.774e-05,-3.05e-06,0.0,0 STARLINK-5065,1 55641U 23021P   23345.69528046 -.00000305  00000-0 -17740-4 0  9999,2 55641  70.0022  89.4528 0003263 255.4704 104.6093 14.98325449 45811,6950.207,96.107,574.34,569.804,0.0
55641.0,STARLINK-5065,PAYLOAD,2023-12-12 13:30:56,14.9833087,0.0003248,70.0004,87.2611,270.6289,89.4498,-2.0728e-05,-3.4e-06,0.0,0 STARLINK-5065,1 55641U 23021P   23346.56315770 -.00000340  00000-0 -20728-4 0  9993,2 55641  70.0004  87.2611 0003248 270.6289  89.4498 14.98330870 46241,6950.19,96.107,574.313,569.798,0.0
55641.0,STARLINK-5065,PAYLOAD,2023-12-12 16:43:12,14.98331351,0.0003156,70.0006,86.9252,265.8299,94.2499,1.7658e-05,1.18e-06,0.0,0 STARLINK-5065,1 55641U 23021P   23346.69667578  .00000118  00000-0  17658-4 0  9992,2 55641  70.0006  86.9252 0003156 265.8299  94.2499 14.98331351 45963,6950.189,96.107,574.247,569.86,0.0
55641.0,STARLINK-5065,PAYLOAD,2023-12-13 13:32:57,14.98335146,0.0003172,70.0007,84.7371,263.3456,96.7342,4.4543e-05,4.39e-06,0.0,0 STARLINK-5065,1 55641U 23021P   23347.56455056  .00000439  00000-0  44543-4 0  9994,2 55641  70.0007  84.7371 0003172 263.3456  96.7342 14.98335146 46396,6950.177,96.107,574.247,569.837,0.0
55641.0,STARLINK-5065,PAYLOAD,2023-12-13 16:45:13,14.98336272,0.000316,70.0007,84.4006,263.1377,96.9423,5.5692e-05,5.72e-06,0.0,0 STARLINK-5065,1 55641U 23021P   23347.69806902  .00000572  00000-0  55692-4 0  9993,2 55641  70.0007  84.4006 0003160 263.1377  96.9423 14.98336272 46118,6950.173,96.107,574.235,569.842,0.0
55641.0,STARLINK-5065,PAYLOAD,2023-12-14 10:22:42,14.98329904,0.0003022,70.0012,82.5497,258.2829,101.7991,-2.8418e-06,-1.27e-06,0.0,0 STARLINK-5065,1 55641U 23021P   23348.43243311 -.00000127  00000-0 -28418-5 0  9990,2 55641  70.0012  82.5497 0003022 258.2829 101.7991 14.98329904 46222,6950.193,96.107,574.159,569.958,0.0
55641.0,STARLINK-5065,PAYLOAD,2023-12-14 13:34:58,14.98330493,0.0003006,70.0012,82.2131,257.7451,102.3371,5.1695e-06,-3.1e-07,0.0,0 STARLINK-5065,1 55641U 23021P   23348.56595242 -.00000031  00000-0  51695-5 0  9993,2 55641  70.0012  82.2131 0003006 257.7451 102.3371 14.98330493 46540,6950.191,96.107,574.146,569.967,0.0
55641.0,STARLINK-5065,PAYLOAD,2023-12-14 16:47:14,14.98330877,0.0003009,70.0012,81.8762,260.1386,99.9434,7.5819e-06,-3e-08,0.0,0 STARLINK-5065,1 55641U 23021P   23348.69947211 -.00000003  00000-0  75819-5 0  9997,2 55641  70.0012  81.8762 0003009 260.1386  99.9434 14.98330877 46562,6950.19,96.107,574.146,569.964,0.0
55641.0,STARLINK-5065,PAYLOAD,2023-12-15 12:00:51,14.98330657,0.0002946,70.0012,79.8568,257.0297,103.0533,-5.0601e-05,-6.97e-06,0.0,0 STARLINK-5065,1 55641U 23021P   23349.50059277 -.00000697  00000-0 -50601-4 0  9995,2 55641  70.0012  79.8568 0002946 257.0297 103.0533 14.98330657 46381,6950.191,96.107,574.103,570.008,0.0
55641.0,STARLINK-5065,PAYLOAD,2023-12-15 13:36:59,14.9832998,0.0002952,70.0012,79.6885,257.4884,102.5945,-5.7172e-05,-7.75e-06,0.0,0 STARLINK-5065,1 55641U 23021P   23349.56735340 -.00000775  00000-0 -57172-4 0  9990,2 55641  70.0012  79.6885 0002952 257.4884 102.5945 14.98329980 46696,6950.193,96.107,574.11,570.006,0.0
55641.0,STARLINK-5065,PAYLOAD,2023-12-15 15:13:07,14.98329556,0.0002954,70.0012,79.5201,258.5117,101.571,-6.0781e-05,-8.18e-06,0.0,0 STARLINK-5065,1 55641U 23021P   23349.63411383 -.00000818  00000-0 -60781-4 0  9994,2 55641  70.0012  79.5201 0002954 258.5117 101.5710 14.98329556 46700,6950.194,96.107,574.112,570.006,0.0
55641.0,STARLINK-5065,PAYLOAD,2023-12-16 12:02:52,14.98328213,0.0003026,70.001,77.3318,259.1856,100.8963,-1.4142e-05,-2.62e-06,0.0,0 STARLINK-5065,1 55641U 23021P   23350.50199367 -.00000262  00000-0 -14142-4 0  9990,2 55641  70.0010  77.3318 0003026 259.1856 100.8963 14.98328213 46533,6950.198,96.107,574.167,569.96,0.0
55641.0,STARLINK-5065,PAYLOAD,2023-12-16 13:39:00,14.9832904,0.0003005,70.001,77.1635,258.1112,101.971,-2.0598e-06,-1.18e-06,0.0,0 STARLINK-5065,1 55641U 23021P   23350.56875281 -.00000118  00000-0 -20598-5 0  9995,2 55641  70.0010  77.1635 0003005 258.1112 101.9710 14.98329040 46849,6950.196,96.107,574.149,569.972,0.0
55641.0,STARLINK-5065,PAYLOAD,2023-12-16 15:15:08,14.98328581,0.0003012,70.0009,76.995,259.2209,100.8611,-7.7709e-06,-1.86e-06,0.0,0 STARLINK-5065,1 55641U 23021P   23350.63551337 -.00000186  00000-0 -77709-5 0  9997,2 55641  70.0009  76.9950 0003012 259.2209 100.8611 14.98328581 46859,6950.197,96.107,574.156,569.969,0.0
55641.0,STARLINK-5065,PAYLOAD,2023-12-17 13:41:01,14.98328812,0.0003002,70.001,74.6386,257.872,102.2103,3.2393e-05,2.94e-06,0.0,0 STARLINK-5065,1 55641U 23021P   23351.57015268  .00000294  00000-0  32393-4 0  9996,2 55641  70.0010  74.6386 0003002 257.8720 102.2103 14.98328812 46994,6950.197,96.107,574.148,569.975,0.0
55641.0,STARLINK-5065,PAYLOAD,2023-12-17 15:17:09,14.98329485,0.0002994,70.0011,74.4704,257.3546,102.7279,3.9083e-05,3.73e-06,0.0,0 STARLINK-5065,1 55641U 23021P   23351.63691209  .00000373  00000-0  39083-4 0  9999,2 55641  70.0011  74.4704 0002994 257.3546 102.7279 14.98329485 46702,6950.194,96.107,574.14,569.979,0.0
55641.0,STARLINK-5065,PAYLOAD,2023-12-18 12:06:53,14.98336872,0.0003082,70.0008,72.2814,259.0277,101.0535,8.0059e-05,8.63e-06,0.0,0 STARLINK-5065,1 55641U 23021P   23352.50478396  .00000863  00000-0  80059-4 0  9999,2 55641  70.0008  72.2814 0003082 259.0277 101.0535 14.98336872 46834,6950.172,96.107,574.179,569.895,0.0
55641.0,STARLINK-5065,PAYLOAD,2023-12-18 13:43:01,14.98337492,0.0003073,70.0008,72.1131,258.8296,101.2518,8.6152e-05,9.35e-06,0.0,0 STARLINK-5065,1 55641U 23021P   23352.57154304  .00000935  00000-0  86152-4 0  9996,2 55641  70.0008  72.1131 0003073 258.8296 101.2518 14.98337492 47140,6950.17,96.107,574.171,569.899,0.0
55641.0,STARLINK-5065,PAYLOAD,2023-12-18 15:19:09,14.98340535,0.0003033,70.001,71.9452,257.4687,102.6132,0.00011963,1.335e-05,0.0,0 STARLINK-5065,1 55641U 23021P   23352.63829962  .00001335  00000-0  11963-3 0  9994,2 55641  70.0010  71.9452 0003033 257.4687 102.6132 14.98340535 47151,6950.16,96.106,574.133,569.917,0.0
55641.0,STARLINK-5065,PAYLOAD,2023-12-19 12:08:55,14.98325446,0.0003043,70.0004,69.7559,266.6206,93.4605,-8.1257e-05,-1.062e-05,0.0,0 STARLINK-5065,1 55641U 23021P   23353.50619577 -.00001062  00000-0 -81257-4 0  9993,2 55641  70.0004  69.7559 0003043 266.6206  93.4605 14.98325446 46983,6950.207,96.107,574.187,569.957,0.0
55641.0,STARLINK-5065,PAYLOAD,2023-12-19 13:45:03,14.98326044,0.0003006,70.0006,69.5879,265.978,94.1036,-7.1717e-05,-9.49e-06,0.0,0 STARLINK-5065,1 55641U 23021P   23353.57295523 -.00000949  00000-0 -71717-4 0  9994,2 55641  70.0006  69.5879 0003006 265.9780  94.1036 14.98326044 47292,6950.205,96.107,574.159,569.981,0.0
55641.0,STARLINK-5065,PAYLOAD,2023-12-20 13:47:04,14.98330831,0.0002881,70.0008,67.0633,261.2551,98.8282,-7.4827e-05,-9.86e-06,0.0,0 STARLINK-5065,1 55641U 23021P   23354.57435387 -.00000986  00000-0 -74827-4 0  9995,2 55641  70.0008  67.0633 0002881 261.2551  98.8282 14.98330831 47440,6950.19,96.107,574.058,570.053,0.0
55641.0,STARLINK-5065,PAYLOAD,2023-12-20 15:23:12,14.98331135,0.0002867,70.0009,66.8951,261.5729,98.5105,-6.5913e-05,-8.79e-06,0.0,0 STARLINK-5065,1 55641U 23021P   23354.64111351 -.00000879  00000-0 -65913-4 0  9992,2 55641  70.0009  66.8951 0002867 261.5729  98.5105 14.98331135 47152,6950.189,96.107,574.047,570.062,0.0
55641.0,STARLINK-5065,PAYLOAD,2023-12-21 13:49:04,14.98358571,0.000227,70.0008,64.5384,256.3546,103.736,-0.00030396,-3.72e-05,0.0,0 STARLINK-5065,1 55641U 23021P   23355.57574226 -.00003720  00000-0 -30396-3 0  9993,2 55641  70.0008  64.5384 0002270 256.3546 103.7360 14.98358571 47596,6950.105,96.105,573.547,570.392,0.0
55641.0,STARLINK-5065,PAYLOAD,2023-12-22 12:14:58,14.98327466,0.0002675,70.001,62.1822,258.1352,101.9507,2.0001e-05,1.46e-06,0.0,0 STARLINK-5065,1 55641U 23021P   23356.51039414  .00000146  00000-0  20001-4 0  9993,2 55641  70.0010  62.1822 0002675 258.1352 101.9507 14.98327466 47439,6950.201,96.107,573.925,570.207,0.0
55641.0,STARLINK-5065,PAYLOAD,2023-12-22 13:51:06,14.98328424,0.000267,70.001,62.014,258.174,101.912,2.9389e-05,2.58e-06,0.0,0 STARLINK-5065,1 55641U 23021P   23356.57715336  .00000258  00000-0  29389-4 0  9995,2 55641  70.0010  62.0140 0002670 258.1740 101.9120 14.98328424 47747,6950.198,96.107,573.918,570.207,0.0
55641.0,STARLINK-5065,PAYLOAD,2023-12-23 12:16:58,14.98332097,0.0002583,70.0014,59.6586,251.0821,109.0059,-5.4722e-05,-7.46e-06,0.0,0 STARLINK-5065,1 55641U 23021P   23357.51179236 -.00000746  00000-0 -54722-4 0  9996,2 55641  70.0014  59.6586 0002583 251.0821 109.0059 14.98332097 47585,6950.186,96.107,573.847,570.256,0.0
55641.0,STARLINK-5065,PAYLOAD,2023-12-23 13:53:06,14.98332123,0.000259,70.0013,59.49,252.9832,107.1044,-5.4197e-05,-7.4e-06,0.0,0 STARLINK-5065,1 55641U 23021P   23357.57855233 -.00000740  00000-0 -54197-4 0  9990,2 55641  70.0013  59.4900 0002590 252.9832 107.1044 14.98332123 47899,6950.186,96.107,573.851,570.251,0.0
55641.0,STARLINK-5065,PAYLOAD,2023-12-24 12:18:59,14.9833186,0.0002606,70.0012,57.1332,252.3096,107.7778,4.659e-05,4.63e-06,0.0,0 STARLINK-5065,1 55641U 23021P   23358.51318874  .00000463  00000-0  46590-4 0  9998,2 55641  70.0012  57.1332 0002606 252.3096 107.7778 14.98331860 47736,6950.187,96.107,573.863,570.241,0.0
55641.0,STARLINK-5065,PAYLOAD,2023-12-24 13:55:07,14.98331859,0.0002635,70.001,56.9645,256.3339,103.7527,4.3705e-05,4.29e-06,0.0,0 STARLINK-5065,1 55641U 23021P   23358.57994883  .00000429  00000-0  43705-4 0  9991,2 55641  70.0010  56.9645 0002635 256.3339 103.7527 14.98331859 48045,6950.187,96.107,573.884,570.221,0.0
